{
  "type": "FeatureCollection",
  "features": [
    {
      "type": "Feature",
      "properties": {
        "norad_id": 36828,
        "name": "BEIDOU-2 IGSO-1 (C06)",
        "group": "beidou",
        "lat": 1.334420389534734,
        "lon": 165.45846975653004,
        "alt_km": 35965.7694180103,
        "timestamp": "2025-12-27T21:25:02.778612+00:00",
        "meta_object_name": "BEIDOU-2 IGSO-1 (C06)",
        "meta_object_id": "2010-036A",
        "meta_epoch": "2025-12-25T21:06:51.904224",
        "meta_mean_motion": 1.00272533,
        "meta_eccentricity": 0.00515074,
        "meta_inclination": 54.2892,
        "meta_ra_of_asc_node": 164.5291,
        "meta_arg_of_pericenter": 215.7944,
        "meta_mean_anomaly": 138.9488,
        "meta_ephemeris_type": 0,
        "meta_classification_type": "U",
        "meta_norad_cat_id": 36828,
        "meta_element_set_no": 999,
        "meta_rev_at_epoch": 5635,
        "meta_bstar": 0,
        "meta_mean_motion_dot": -5.2e-07,
        "meta_mean_motion_ddot": 0,
        "tle_line1": "1 36828U 10036A   25359.87976741 -.00000052  00000+0  00000+0 0  9996",
        "tle_line2": "2 36828  54.2892 164.5291 0051507 215.7944 138.9488  1.00272533 56350"
      },
      "geometry": {
        "type": "Point",
        "coordinates": [
          165.45846975653004,
          1.334420389534734
        ]
      }
    },
    {
      "type": "Feature",
      "properties": {
        "norad_id": 37210,
        "name": "BEIDOU-2 G4 (C04)",
        "group": "beidou",
        "lat": 1.698700920389935,
        "lon": -142.09447617945378,
        "alt_km": 35755.26059957906,
        "timestamp": "2025-12-27T21:25:02.778638+00:00",
        "meta_object_name": "BEIDOU-2 G4 (C04)",
        "meta_object_id": "2010-057A",
        "meta_epoch": "2025-12-27T13:05:37.654080",
        "meta_mean_motion": 1.00271139,
        "meta_eccentricity": 0.0010535,
        "meta_inclination": 3.2189,
        "meta_ra_of_asc_node": 69.8819,
        "meta_arg_of_pericenter": 194.2662,
        "meta_mean_anomaly": 188.6125,
        "meta_ephemeris_type": 0,
        "meta_classification_type": "U",
        "meta_norad_cat_id": 37210,
        "meta_element_set_no": 999,
        "meta_rev_at_epoch": 5557,
        "meta_bstar": 0,
        "meta_mean_motion_dot": -9.1e-07,
        "meta_mean_motion_ddot": 0,
        "tle_line1": "1 37210U 10057A   25361.54557470 -.00000091  00000+0  00000+0 0  9999",
        "tle_line2": "2 37210   3.2189  69.8819 0010535 194.2662 188.6125  1.00271139 55570"
      },
      "geometry": {
        "type": "Point",
        "coordinates": [
          -142.09447617945378,
          1.698700920389935
        ]
      }
    },
    {
      "type": "Feature",
      "properties": {
        "norad_id": 37256,
        "name": "BEIDOU-2 IGSO-2 (C07)",
        "group": "beidou",
        "lat": -44.98597667752666,
        "lon": 158.57131709194314,
        "alt_km": 35625.26957158981,
        "timestamp": "2025-12-27T21:25:02.778655+00:00",
        "meta_object_name": "BEIDOU-2 IGSO-2 (C07)",
        "meta_object_id": "2010-068A",
        "meta_epoch": "2025-12-27T13:58:10.761600",
        "meta_mean_motion": 1.00281592,
        "meta_eccentricity": 0.0048261,
        "meta_inclination": 47.8585,
        "meta_ra_of_asc_node": 273.9673,
        "meta_arg_of_pericenter": 215.8634,
        "meta_mean_anomaly": 284.1586,
        "meta_ephemeris_type": 0,
        "meta_classification_type": "U",
        "meta_norad_cat_id": 37256,
        "meta_element_set_no": 999,
        "meta_rev_at_epoch": 5507,
        "meta_bstar": 0,
        "meta_mean_motion_dot": -2.06e-06,
        "meta_mean_motion_ddot": 0,
        "tle_line1": "1 37256U 10068A   25361.58206900 -.00000206  00000+0  00000+0 0  9992",
        "tle_line2": "2 37256  47.8585 273.9673 0048261 215.8634 284.1586  1.00281592 55078"
      },
      "geometry": {
        "type": "Point",
        "coordinates": [
          158.57131709194314,
          -44.98597667752666
        ]
      }
    },
    {
      "type": "Feature",
      "properties": {
        "norad_id": 37384,
        "name": "BEIDOU-2 IGSO-3 (C08)",
        "group": "beidou",
        "lat": 47.98767109493027,
        "lon": -174.09291879958948,
        "alt_km": 35719.91362726801,
        "timestamp": "2025-12-27T21:25:02.778669+00:00",
        "meta_object_name": "BEIDOU-2 IGSO-3 (C08)",
        "meta_object_id": "2011-013A",
        "meta_epoch": "2025-12-26T18:04:14.277792",
        "meta_mean_motion": 1.00267391,
        "meta_eccentricity": 0.00351191,
        "meta_inclination": 62.1613,
        "meta_ra_of_asc_node": 41.7837,
        "meta_arg_of_pericenter": 187.8187,
        "meta_mean_anomaly": 244.1436,
        "meta_ephemeris_type": 0,
        "meta_classification_type": "U",
        "meta_norad_cat_id": 37384,
        "meta_element_set_no": 999,
        "meta_rev_at_epoch": 5393,
        "meta_bstar": 0,
        "meta_mean_motion_dot": -1.71e-06,
        "meta_mean_motion_ddot": 0,
        "tle_line1": "1 37384U 11013A   25360.75294303 -.00000171  00000+0  00000+0 0  9998",
        "tle_line2": "2 37384  62.1613  41.7837 0035119 187.8187 244.1436  1.00267391 53938"
      },
      "geometry": {
        "type": "Point",
        "coordinates": [
          -174.09291879958948,
          47.98767109493027
        ]
      }
    },
    {
      "type": "Feature",
      "properties": {
        "norad_id": 37763,
        "name": "BEIDOU-2 IGSO-4 (C09)",
        "group": "beidou",
        "lat": -10.553968512472718,
        "lon": 159.5754022627117,
        "alt_km": 36063.054383533716,
        "timestamp": "2025-12-27T21:25:02.778682+00:00",
        "meta_object_name": "BEIDOU-2 IGSO-4 (C09)",
        "meta_object_id": "2011-038A",
        "meta_epoch": "2025-12-26T23:21:51.633792",
        "meta_mean_motion": 1.00276208,
        "meta_eccentricity": 0.01496647,
        "meta_inclination": 54.5847,
        "meta_ra_of_asc_node": 167.22,
        "meta_arg_of_pericenter": 230.2504,
        "meta_mean_anomaly": 143.4727,
        "meta_ephemeris_type": 0,
        "meta_classification_type": "U",
        "meta_norad_cat_id": 37763,
        "meta_element_set_no": 999,
        "meta_rev_at_epoch": 5292,
        "meta_bstar": 0,
        "meta_mean_motion_dot": 7.7e-07,
        "meta_mean_motion_ddot": 0,
        "tle_line1": "1 37763U 11038A   25360.97351428  .00000077  00000+0  00000+0 0  9996",
        "tle_line2": "2 37763  54.5847 167.2200 0149664 230.2504 143.4727  1.00276208 52927"
      },
      "geometry": {
        "type": "Point",
        "coordinates": [
          159.5754022627117,
          -10.553968512472718
        ]
      }
    },
    {
      "type": "Feature",
      "properties": {
        "norad_id": 37948,
        "name": "BEIDOU-2 IGSO-5 (C10)",
        "group": "beidou",
        "lat": -39.24749889696548,
        "lon": 140.97328469379354,
        "alt_km": 35343.09631381177,
        "timestamp": "2025-12-27T21:25:02.778696+00:00",
        "meta_object_name": "BEIDOU-2 IGSO-5 (C10)",
        "meta_object_id": "2011-073A",
        "meta_epoch": "2025-12-26T17:38:23.606880",
        "meta_mean_motion": 1.00287779,
        "meta_eccentricity": 0.01096357,
        "meta_inclination": 47.994,
        "meta_ra_of_asc_node": 273.6869,
        "meta_arg_of_pericenter": 222.0715,
        "meta_mean_anomaly": 318.062,
        "meta_ephemeris_type": 0,
        "meta_classification_type": "U",
        "meta_norad_cat_id": 37948,
        "meta_element_set_no": 999,
        "meta_rev_at_epoch": 5140,
        "meta_bstar": 0,
        "meta_mean_motion_dot": -1.46e-06,
        "meta_mean_motion_ddot": 0,
        "tle_line1": "1 37948U 11073A   25360.73499545 -.00000146  00000+0  00000+0 0  9995",
        "tle_line2": "2 37948  47.9940 273.6869 0109635 222.0715 318.0620  1.00287779 51401"
      },
      "geometry": {
        "type": "Point",
        "coordinates": [
          140.97328469379354,
          -39.24749889696548
        ]
      }
    },
    {
      "type": "Feature",
      "properties": {
        "norad_id": 38091,
        "name": "BEIDOU-2 G5 (C05)",
        "group": "beidou",
        "lat": 2.277125845247545,
        "lon": 116.55983253096778,
        "alt_km": 35841.69423948879,
        "timestamp": "2025-12-27T21:25:02.778709+00:00",
        "meta_object_name": "BEIDOU-2 G5 (C05)",
        "meta_object_id": "2012-008A",
        "meta_epoch": "2025-12-27T11:34:13.542816",
        "meta_mean_motion": 1.00270288,
        "meta_eccentricity": 0.001321,
        "meta_inclination": 3.1436,
        "meta_ra_of_asc_node": 70.6546,
        "meta_arg_of_pericenter": 232.0727,
        "meta_mean_anomaly": 25.7584,
        "meta_ephemeris_type": 0,
        "meta_classification_type": "U",
        "meta_norad_cat_id": 38091,
        "meta_element_set_no": 999,
        "meta_rev_at_epoch": 5064,
        "meta_bstar": 0,
        "meta_mean_motion_dot": 7.8e-07,
        "meta_mean_motion_ddot": 0,
        "tle_line1": "1 38091U 12008A   25361.48210119  .00000078  00000+0  00000+0 0  9998",
        "tle_line2": "2 38091   3.1436  70.6546 0013210 232.0727  25.7584  1.00270288 50642"
      },
      "geometry": {
        "type": "Point",
        "coordinates": [
          116.55983253096778,
          2.277125845247545
        ]
      }
    }
  ]
}